uniqueID,title,Longitude,Latitude,clinicAddressLine1,clinicAddressLine2,suburb,state,postcode,locationInstructions,driveThroughTesting,wheelchairAccessible,walkInAllowed,bookingRequired,bookingLink,bookingPhoneNumber,ageLimit,referralRequired,mondayOpeningHours,mondayBreakStartTime,mondayBreakEndTime,mondayClosingHours,tuesdayOpeningHours,tuesdayBreakStartTime,tuesdayBreakEndTime,tuesdayClosingHours,wednesdayOpeningHours,wednesdayBreakStartTime,wednesdayBreakEndTime,wednesdayClosingHours,thursdayOpeningHours,thursdayBreakStartTime,thursdayBreakEndTime,thursdayClosingHours,fridayOpeningHours,fridayBreakStartTime,fridayBreakEndTime,fridayClosingHours,saturdayOpeningHours,saturdayBreakStartTime,saturdayBreakEndTime,saturdayClosingHours,sundayOpeningHours,sundayBreakStartTime,sundayBreakEndTime,sundayClosingHours,specialInstructions,resultsInstructions,closureInstructions,ageRestrictionInstructions,bookingInstructions,otherInstructions,providerWebsite,lastUpdated
CID00001,Albion Park Southern.IML Pathology Drive-through Clinic,150.777569997778,-34.5701408321722,,Croome Road,Albion Park,NSW,2527,Entry via East/West Link,Y,Y,N,N,,,,N,8:00 AM,,,3:00 PM,8:00 AM,,,3:00 PM,8:00 AM,,,3:00 PM,8:00 AM,,,3:00 PM,8:00 AM,,,3:00 PM,8:00 AM,,,3:00 PM,,,,,,1300 652 200,,,,Closed on public holidays.,https://www.southernpath.com.au/,2023-04-18 4:00 pm
CID00010,Armidale Douglass Hanly Moir Pathology Walk-in Clinic,151.658462511357,-30.5127852016344,,210 Rusden Street,Armidale,NSW,2350,,N,N,Y,N,,,,N,8:30 AM,,,3:00 PM,8:30 AM,,,3:00 PM,8:30 AM,,,3:00 PM,8:30 AM,,,3:00 PM,8:30 AM,,,3:00 PM,,,,,,,,,,(02) 9855 6116,,,,,https://www.dhm.com.au/,2023-04-04 2:45 pm
CID00012,Arncliffe Histopath Pathology Drive-through Clinic,151.15049,-33.94474,Riverine Park,Corner Spring Street and West Botany Street,Arncliffe,NSW,2205,,Y,Y,N,N,,,,N,8:00 AM,,,4:00 PM,8:00 AM,,,4:00 PM,8:00 AM,,,4:00 PM,8:00 AM,,,4:00 PM,8:00 AM,,,4:00 PM,,,,,,,,,,(02) 9878 8111,,,,,https://www.histopath.com.au/,2023-04-18 9:46 am
CID00013,Ashfield Clinical Labs Pathology Walk-in Clinic,151.124887598116,-33.8889792503112,,236 Liverpool Road,Ashfield,NSW,2131,,N,N,Y,N,,,,N,8:00 AM,,,4:00 PM,8:00 AM,,,4:00 PM,8:00 AM,,,4:00 PM,8:00 AM,,,4:00 PM,8:00 AM,,,4:00 PM,8:00 AM,,,4:00 PM,8:00 AM,,,4:00 PM,,1300 134 111,,,,,https://www.clinicallabs.com.au/about-us/doctor-media-releases/novel-coronavirus-nsw/,2023-04-04 2:45 pm
CID00014,Auburn Central Clinical Labs Pathology Walk In Clinic,151.031782779948,-33.8504334311645,Town Square,Queen Street,Auburn,NSW,2144,,N,Y,Y,N,,,,N,9:00 AM,,,4:00 PM,9:00 AM,,,4:00 PM,9:00 AM,,,4:00 PM,9:00 AM,,,4:00 PM,9:00 AM,,,4:00 PM,9:00 AM,,,4:00 PM,9:00 AM,,,4:00 PM,,(02) 8745 6500,,,,,https://www.clinicallabs.com.au/,2023-03-23 8:45 am
CID00019,Ballina 4Cyte Pathology Drive-through Clinic,153.551123653074,-28.8664150738336,,319 River Street,Ballina,NSW,2478,,Y,Y,N,N,,,,N,7:00 AM,,,4:00 PM,7:00 AM,,,4:00 PM,7:00 AM,,,4:00 PM,7:00 AM,,,4:00 PM,7:00 AM,,,4:00 PM,7:00 AM,,,4:00 PM,7:00 AM,,,4:00 PM,,13 42 98,,,,,https://www.4cyte.com.au/,2023-04-24 10:15 am
CID00022,Balranald Drive-through Clinic,143.568408173827,-34.6444660020456,Balranald Multipurpose Service,Court Street,Balranald,NSW,2715,,Y,Y,N,N,,,5+,N,9:00 AM,,,5:00 PM,9:00 AM,,,5:00 PM,9:00 AM,,,5:00 PM,9:00 AM,,,5:00 PM,9:00 AM,,,5:00 PM,,,,,,,,,,,,"Children under the age 5 years will not be tested at this clinic.
Children should attend their nearest Emergency Department or local GP so a full medical assessment can be undertaken.",Emergency Department at Balranald Multi-Purpose Health Service is open 24/7 for urgent presentations.,Closed on public holidays.,,2023-01-18 9:16 am
CID00023,Bankstown 4Cyte Pathology Walk-in Clinic,151.032748,-33.914917,,48 Kitchener Parade,Bankstown,NSW,2200,,N,Y,Y,N,,,,N,8:00 AM,,,6:00 PM,8:00 AM,,,6:00 PM,8:00 AM,,,6:00 PM,8:00 AM,,,6:00 PM,8:00 AM,,,6:00 PM,8:00 AM,,,6:00 PM,8:00 AM,,,6:00 PM,,13 42 98,,,,,https://www.4cyte.com.au/,2023-04-24 12:00 pm
CID00027,Baradine Multi-Purpose Service Clinic,149.066511505357,-30.9450321594829,,37A Macquarie Street,Baradine,NSW,2396,,N,Y,Y,Y,,(02) 5849 9000,,N,,,,,,,,,1:30 PM,,,2:30 PM,,,,,,,,,,,,,,,,,,,,,Will screen and test if unwell 24/7.,,,2022-12-20 11:45 am
CID00028,Barden Ridge Histopath Pathology Drive-through Clinic,150.994792,-34.03324,The Ridge Athletic Track,Recreation Drive,Barden Ridge,NSW,2234,,Y,Y,N,N,,,,N,8:00 AM,,,6:00 PM,8:00 AM,,,6:00 PM,8:00 AM,,,6:00 PM,8:00 AM,,,6:00 PM,8:00 AM,,,6:00 PM,8:00 AM,,,6:00 PM,8:00 AM,,,6:00 PM,,(02) 9878 8111,,,,,https://www.histopath.com.au/,2023-04-18 9:00 am
CID00032,Barratt and Smith Pathology Mildura,142.145098697722,-34.1843164439932,,127 Langtree Avenue,Mildura,VIC,3500,,N,N,Y,Y,,(03) 5055 0400,,N,8:00 AM,,,12:00 PM,8:00 AM,,,12:00 PM,8:00 AM,,,12:00 PM,8:00 AM,,,12:00 PM,8:00 AM,,,12:00 PM,9:00 AM,,,12:00 PM,9:00 AM,,,12:00 PM,,,,,,,,2021-12-21 9:45 am
CID00038,Bathurst Drive-through Clinic,149.57947313817,-33.4152354478286,Old Clancy's Car Yard,250-252 Howick Street,Bathurst,NSW,2795,"Enter via RSL Carpark, Rankin Street entrance.",Y,Y,Y,N,,,,N,8:00 AM,,,3:00 PM,8:00 AM,,,3:00 PM,8:00 AM,,,3:00 PM,8:00 AM,,,3:00 PM,8:00 AM,,,3:00 PM,10:00 AM,,,3:00 PM,10:00 AM,,,3:00 PM,,,,,,,,2023-04-18 9:45 am
CID00043,Bella Vista Clinical Labs Pathology Walk-In Clinic,150.947399162084,-33.7365089633922,Unit 112,14 Lexington Drive,Bella Vista,NSW,2153,,N,Y,Y,Y,https://clinicallabs.simplybook.me/v2/,,,N,9:00 AM,,,5:00 PM,9:00 AM,,,5:00 PM,9:00 AM,,,5:00 PM,9:00 AM,,,5:00 PM,9:00 AM,,,5:00 PM,9:00 AM,,,4:00 PM,9:00 AM,,,4:00 PM,,1300 134 111,,,,,https://www.clinicallabs.com.au/about-us/doctor-media-releases/novel-coronavirus-nsw/,2023-04-04 2:45 pm
CID00044,Bellambi Histopath Drive-through Clinic,150.924338110173,-34.3693465673394,Soccer Field Carpark,Armour Street,Bellambi,NSW,2518,,Y,Y,N,N,,,,N,8:00 AM,,,4:00 PM,8:00 AM,,,4:00 PM,8:00 AM,,,4:00 PM,8:00 AM,,,4:00 PM,8:00 AM,,,4:00 PM,8:00 AM,,,4:00 PM,8:00 AM,,,4:00 PM,,(02) 9878 8111,,,,,https://www.histopath.com.au/,2023-04-18 9:30 am
CID00047,Belmore Respiratory Clinic,151.0901489,-33.9205457,,479 Burwood Road,Belmore,NSW,2192,Enter the driveway and stay in car with window closed and staff will assist accordingly.,Y,N,N,Y,https://www.hotdoc.com.au/medical-centres/book/appointment/patient?clinic=4344,,,N,9:00 AM,,,4:00 PM,9:00 AM,,,4:00 PM,9:00 AM,,,4:00 PM,9:00 AM,,,4:00 PM,9:00 AM,,,4:00 PM,9:00 AM,,,4:00 PM,9:00 AM,,,2:00 PM,,,,,,,,2023-01-10 5:00 pm
CID00048,Benalla Health Hospital Clinic,145.993650582117,-36.5547732217056,,45-63 Coster Street,Benalla,VIC,3672,,N,N,N,Y,,(03) 5761 4284,,N,9:30 AM,,,6:00 PM,9:30 AM,,,6:00 PM,9:30 AM,,,6:00 PM,9:30 AM,,,6:00 PM,9:30 AM,,,6:00 PM,1:30 PM,,,3:30 PM,1:30 PM,,,3:30 PM,,,,,,,,2023-01-10 5:00 pm
CID00049,Berkeley Southern.IML Pathology Drive-through Clinic,150.834846003238,-34.4787292480818,Illawarra Sports Stadium Car Park,"Fred Finch Park, Hooka Creek Road",Berkeley,NSW,2506,,Y,Y,N,N,,,,N,8:00 AM,,,5:00 PM,8:00 AM,,,5:00 PM,8:00 AM,,,5:00 PM,8:00 AM,,,5:00 PM,8:00 AM,,,5:00 PM,,,,,,,,,,1300 652 200,,,,Closed on public holidays.,https://www.southernpath.com.au/,2023-04-18 4:00 pm
CID00051,Blacktown 4Cyte Pathology Drive-through and Walk-in Clinic,150.910593613461,-33.7656059659371,,20 Third Avenue,Blacktown,NSW,2148,,Y,Y,Y,N,,,,N,7:00 AM,,,8:00 PM,7:00 AM,,,8:00 PM,7:00 AM,,,8:00 PM,7:00 AM,,,8:00 PM,7:00 AM,,,8:00 PM,7:00 AM,,,8:00 PM,7:00 AM,,,8:00 PM,,13 42 98,,,,,https://www.4cyte.com.au/,2023-04-24 12:00 pm
CID00058,Blayney Drive-through Clinic,149.250678754804,-33.5377282988777,,3 Osman Street,Blayney,NSW,2799,,Y,Y,N,Y,,02 6368 9000,2+,N,9:00 AM,,,10:00 AM,9:00 AM,,,10:00 AM,9:00 AM,,,10:00 AM,9:00 AM,,,10:00 AM,9:00 AM,,,10:00 AM,,,,,,,,,,,,"Children under the age 2 years will not be tested at this clinic.
Children should attend their nearest Emergency Department so a full medical assessment can be undertaken.",,Closed on public holidays.,,2023-01-18 9:30 am
CID00061,Bomaderry Histopath Pathology Drive-through Clinic,150.601071145725,-34.8463077667588,Shoalhaven Indoor Sports Centre Car Park,90 Cambewarra Road,Bomaderry,NSW,2541,,Y,Y,N,N,,,,N,8:00 AM,,,4:00 PM,8:00 AM,,,4:00 PM,8:00 AM,,,4:00 PM,8:00 AM,,,4:00 PM,8:00 AM,,,4:00 PM,8:00 AM,,,4:00 PM,8:00 AM,,,4:00 PM,,(02) 9878 8111,,,,,https://www.histopath.com.au/,2023-04-18 9:30 am
CID00064,Bondi Junction 4Cyte Pathology Walk-in Clinic,151.2477432,-33.8939983,,50 Bronte Road,Bondi Junction,NSW,2022,,N,Y,Y,N,,,,N,8:00 AM,,,6:00 PM,8:00 AM,,,6:00 PM,8:00 AM,,,6:00 PM,8:00 AM,,,6:00 PM,8:00 AM,,,6:00 PM,8:00 AM,,,6:00 PM,8:00 AM,,,6:00 PM,,13 42 98,,,,,https://www.4cyte.com.au/,2023-01-23 8:15 am
CID00066,Bondi Junction GP Respiratory Clinic,151.2466185,-33.8925119,,47 Spring Street,Bondi Junction,NSW,2022,,N,N,Y,Y,https://www.hotdoc.com.au/medical-centres/bondi-junction-NSW-2022/bondi-junction-respiratory-clinic/doctors?purpose=respiratory,,,N,9:00 AM,,,5:00 PM,9:00 AM,,,5:00 PM,9:00 AM,,,4:30 PM,9:00 AM,,,5:00 PM,9:00 AM,,,5:00 PM,9:00 AM,,,12:30 PM,,,,,,,,,,,,2023-01-03 2:30 pm
CID00079,Burwood 4Cyte Pathology Walk-in Clinic,151.103953523882,-33.8782034690496,,188-190 Burwood Road,Burwood,NSW,2134,Walk-in via front entry only.,N,Y,Y,N,,,,N,8:00 AM,,,6:00 PM,8:00 AM,,,6:00 PM,8:00 AM,,,6:00 PM,8:00 AM,,,6:00 PM,8:00 AM,,,6:00 PM,8:00 AM,,,6:00 PM,8:00 AM,,,6:00 PM,,13 42 98,,,,,https://www.4cyte.com.au/,2023-01-23 8:15 am
CID00082,Byron Central Hospital Clinic,153.5558978,-28.6373653,,54 Ewingsdale Road,Ewingsdale,NSW,2481,,N,Y,Y,N,,,,N,9:00 AM,,,1:00 PM,,,,,,,,,,,,,,,,,,,,,,,,,,,,,,,,2023-01-04 10:30 am
CID00087,Campbelltown Histopath Pathology Drive-through Clinic,150.787544,-34.068295,"Western Sydney University, Car Park 8",Brian Smith Drive,Campbelltown,NSW,2560,,Y,Y,N,N,,,,N,8:00 AM,,,4:00 PM,8:00 AM,,,4:00 PM,8:00 AM,,,4:00 PM,8:00 AM,,,4:00 PM,8:00 AM,,,4:00 PM,8:00 AM,,,4:00 PM,8:00 AM,,,4:00 PM,,(02) 9878 8111,,,,,https://www.histopath.com.au/,2023-04-18 9:30 am
CID00089,Campbelltown Respiratory Clinic,150.8124686,-34.0682525,Shop 1,251 Queen Street,Campbelltown,NSW,2560,,N,N,Y,Y,https://www.hotdoc.com.au/medical-centres/campbelltown-NSW-2560/campbelltown-respiratory-clinic/doctors?purpose=respiratory,02 4608 9772,,N,9:00 AM,,,5:00 PM,9:00 AM,,,5:00 PM,9:00 AM,,,5:00 PM,9:00 AM,,,5:00 PM,9:00 AM,,,5:00 PM,9:00 AM,,,1:00 PM,,,,,,02 9005 7005,,,,,,2023-01-10 4:30 pm
CID00090,Campbelltown/Leumeah Histopath Pathology Drive-through Clinic,150.831223,-34.049327,Commuter Car Park,Plough Inn Road,Leumeah,NSW,2560,,Y,Y,N,N,,,,N,8:00 AM,,,6:00 PM,8:00 AM,,,6:00 PM,8:00 AM,,,6:00 PM,8:00 AM,,,6:00 PM,8:00 AM,,,6:00 PM,8:00 AM,,,6:00 PM,8:00 AM,,,6:00 PM,,(02) 9878 8111,,,,,https://www.histopath.com.au/,2023-04-18 9:45 am
CID00094,Canowindra Soldiers Memorial Hospital Clinic,148.672492398019,-33.5574038892014,,Browns Avenue,Canowindra,NSW,2804,,N,Y,Y,Y,,(02) 6364 4300,,N,11:00 AM,,,11:30 AM,11:00 AM,,,11:30 AM,11:00 AM,,,11:30 AM,11:00 AM,,,11:30 AM,11:00 AM,,,11:30 AM,,,,,,,,,,,,,Testing available by appointment ,Closed on public holidays.,,2023-01-18 9:31 am
CID00097,Caringbah Histopath Pathology Walk-in Clinic,151.121074,-34.04158,,348R Kingsway,Caringbah,NSW,2229,Next to the pedestrian access linking the Kingsway to the supermarket.,N,Y,Y,N,,,,N,8:00 AM,,,4:00 PM,8:00 AM,,,4:00 PM,8:00 AM,,,4:00 PM,8:00 AM,,,4:00 PM,8:00 AM,,,4:00 PM,8:00 AM,,,4:00 PM,8:00 AM,,,4:00 PM,,(02) 9878 8111,,,,,https://www.histopath.com.au/,2023-04-18 9:30 am
CID00103,Castle Hill Clinical Labs Pathology Drive-through Clinic,150.98582,-33.724302,Castle Hill Showground,Showground Road,Castle Hill,NSW,2154,Enter off Showground Road at the traffic lights between the intersections at Gilbert and Carrington Roads.,Y,Y,N,N,,,,N,9:00 AM,,,5:00 PM,9:00 AM,,,5:00 PM,9:00 AM,,,5:00 PM,9:00 AM,,,5:00 PM,9:00 AM,,,5:00 PM,9:00 AM,,,5:00 PM,9:00 AM,,,5:00 PM,,1300 134 111,,,,,https://www.clinicallabs.com.au/about-us/doctor-media-releases/novel-coronavirus-nsw/,2023-03-23 8:45 am
CID00114,Chifley Histopath Pathology Drive-through Clinic,151.2380973,-33.97435,Chifley Sports Reserve,800-899R Bunnerong Road,Chifley,NSW,2036,,Y,Y,Y,N,,,,N,8:00 AM,,,4:00 PM,8:00 AM,,,4:00 PM,8:00 AM,,,4:00 PM,8:00 AM,,,4:00 PM,8:00 AM,,,4:00 PM,,,,,,,,,,(02) 9878 8111,,,,,https://www.histopath.com.au/,2023-04-18 9:30 am
CID00118,Cobram Hospital Clinic,145.651092597437,-35.9164912021514,,24-32 Broadway Street,Cobram,VIC,3644,,N,N,N,Y,,(03) 5871 0777,,N,1:30 PM,,,3:30 PM,1:30 PM,,,3:30 PM,1:30 PM,,,3:30 PM,1:30 PM,,,3:30 PM,1:30 PM,,,3:30 PM,,,,,,,,,,,,,,,,2021-11-26 4:20 pm
CID00122,Collarenebri Multi-Purpose Health Service Drive-through Clinic,148.580726651752,-29.518864905295,,Walgett Street,Collarenebri,NSW,2833,,Y,Y,N,Y,,(02) 6756 4800,,N,9:00 AM,,,12:30 PM,9:00 AM,,,12:30 PM,9:00 AM,,,12:30 PM,9:00 AM,,,12:30 PM,9:00 AM,,,12:30 PM,,,,,,,,,,,,,Testing available by appointment on public holidays.,Closed on public holidays.,,2023-01-18 9:31 am
CID00124,Concord Hospital Clinic,151.091991,-33.836616,NSW Institute of Sports Medicine,Hospital Road,Concord West,NSW,2138,Opposite Emergency Department.,N,Y,Y,N,,,,N,8:00 AM,,,4:00 PM,8:00 AM,,,4:00 PM,8:00 AM,,,4:00 PM,8:00 AM,,,4:00 PM,8:00 AM,,,4:00 PM,8:00 AM,,,4:00 PM,8:00 AM,,,4:00 PM,,,,,,,,2023-01-10 4:30 pm
CID00125,Condobolin Multi-Purpose Health Service Clinic,147.155073363907,-33.0819350913314,Condobolin Hospital,2 Madeline Street,Condobolin,NSW,2877,Near emergency department entry.,N,Y,Y,Y,,(02) 6890 1511,,N,10:00 AM,,,11:00 AM,10:00 AM,,,11:00 AM,10:00 AM,,,11:00 AM,10:00 AM,,,11:00 AM,10:00 AM,,,11:00 AM,,,,,,,,,,,,,,Closed on public holidays.,,2023-01-18 9:31 am
CID00127,Coolah Multi-Purpose Service Drive-through Clinic,149.71546272497,-31.8229761471334,,Martin Street,Coolah,NSW,2843,,N,Y,Y,Y,,(02) 6377 9100,,N,11:00 AM,,,12:00 PM,11:00 AM,,,12:00 PM,11:00 AM,,,12:00 PM,11:00 AM,,,12:00 PM,11:00 AM,,,12:00 PM,,,,,,,,,,,,,,Closed on public holidays.,,2023-01-18 9:45 am
CID00135,Burwood (Railway Parade) Histopath Drive-through Clinic,151.101085399774,-33.8775084224329,,60 Railway Parade,Burwood,NSW,2134,Access off Wynne Street.,Y,N,N,N,,,,N,8:00 AM,,,4:00 PM,8:00 AM,,,4:00 PM,8:00 AM,,,4:00 PM,8:00 AM,,,4:00 PM,8:00 AM,,,4:00 PM,8:00 AM,,,4:00 PM,8:00 AM,,,4:00 PM,,(02) 9878 8111,,,,,https://www.histopath.com.au/,2023-04-18 9:30 am
CID00137,Cowra Respiratory Clinic,148.6951241,-33.8356693,Cowra Medical Associates,165-169 Kendal Street,Cowra,NSW,2794,,N,N,N,Y,https://www.hotdoc.com.au/medical-centres/book/appointment/patient?clinic=4516,(02) 6341 1400,,N,8:30 AM,,,12:30 PM,8:30 AM,,,12:30 PM,8:30 AM,,,12:30 PM,8:30 AM,,,12:30 PM,8:30 AM,,,12:30 PM,,,,,,,,,,,,,,,,2023-01-03 2:30 pm
CID00142,Daceyville Clinical Labs Pathology Drive-through Clinic,151.2288911060929,-33.93217378847263,Rowland Park,10-14 Prince Edward Circle,Daceyville,NSW,2032,,Y,Y,N,N,,,,N,9:00 AM,,,4:00 PM,9:00 AM,,,4:00 PM,9:00 AM,,,4:00 PM,9:00 AM,,,4:00 PM,9:00 AM,,,4:00 PM,9:00 AM,,,4:00 PM,9:00 AM,,,4:00 PM,,(02) 8745 6500,,,,,https://www.clinicallabs.com.au/,2023-04-21 10:15 am
CID00143,Dapto Histopath Pathology Drive-through and Walk-In Clinic,150.794479961777,-34.5029762656499,Lakelands Oval Carpark,Lakelands Drive,Dapto,NSW,2530,,Y,Y,Y,N,,,,N,8:00 AM,,,4:00 PM,8:00 AM,,,4:00 PM,8:00 AM,,,4:00 PM,8:00 AM,,,4:00 PM,8:00 AM,,,4:00 PM,,,,,,,,,,(02) 9878 8111,,,,,https://www.histopath.com.au/,2023-04-18 9:30 am
CID00144,Dee Why Respiratory Clinic,151.2828551,-33.7556633,,G/5 Mooramba Road,Dee Why,NSW,2099,,N,N,Y,Y,https://www.hotdoc.com.au/medical-centres/dee-why-NSW-2099/dee-why-respiratory-clinic/doctors?purpose=respiratory,(02) 8416 5005,,N,8:00 AM,,,12:00 PM,8:00 AM,,,1:00 PM,8:00 AM,,,1:00 PM,8:30 AM,,,1:00 PM,8:00 AM,,,1:00 PM,,,,,,,,,,,,,,,,2023-01-10 3:30 pm
CID00148,Dubbo Histopath Pathology Walk-in Clinic,148.6024814453013,-32.25243845316831,,1/207 Brisbane Street ,Dubbo,NSW,2830,Walk-in clinic only. Open Saturday 1st April 2023,N,Y,N,N,,,,N,7:00 AM,,,4:00 PM,7:00 AM,,,4:00 PM,7:00 AM,,,4:00 PM,7:00 AM,,,4:00 PM,7:00 AM,,,4:00 PM,7:00 AM,,,4:00 PM,7:00 AM,,,4:00 PM,,(02) 9878 8111,,,,Now a walk-in clinic only,https://www.histopath.com.au/,2023-04-18 9:45 am
CID00150,Dubbo Respiratory Clinic,148.6028915,-32.2504375,Dubbo Medical and Allied Health Group,183 Brisbane Street,Dubbo,NSW,2830,Call (02) 6815 9900 when you arrive and remain in your vehicle until called for your appointment.,N,Y,Y,Y,https://www.hotdoc.com.au/medical-centres/book/appointment/patient?clinic=4457,02 6815 9900,,N,1:30 PM,,,5:30 PM,1:30 PM,,,5:30 PM,1:30 PM,,,5:30 PM,1:30 PM,,,5:30 PM,1:30 PM,,,5:30 PM,,,,,,,,,,,,,,,,2023-01-03 2:30 pm
CID00152,Dunedoo Multi-Purpose Health Service Walk-in Clinic,149.394468370999,-32.0170691438955,,Digilah Street,Dunedoo,NSW,2844,,N,N,Y,Y,,(02) 6370 3000,,N,2:00 PM,,,3:00 PM,2:00 PM,,,3:00 PM,2:00 PM,,,3:00 PM,2:00 PM,,,3:00 PM,2:00 PM,,,3:00 PM,2:00 PM,,,3:00 PM,2:00 PM,,,3:00 PM,,,,,,,,2022-05-25 12:02 pm
CID00155,Earlwood 4Cyte Pathology Drive-through and Walk-in Clinic,151.118736285276,-33.9248300663194,Earlwood Bowling Club Carpark,134 Woolcott Street,Earlwood,NSW,2206,,Y,Y,Y,N,,,,N,8:00 AM,,,4:00 PM,8:00 AM,,,4:00 PM,8:00 AM,,,4:00 PM,8:00 AM,,,4:00 PM,8:00 AM,,,4:00 PM,8:00 AM,,,4:00 PM,8:00 AM,,,4:00 PM,,13 42 98,,,,,https://www.4cyte.com.au/,2023-04-24 12:00 pm
CID00161,Emerald Hills Clinical Labs Pathology Drive-through Clinic,150.792234,-33.996384,Emerald Hills Shopping Village,Emerald Hills Boulevard,Leppington,NSW,2179,,Y,Y,N,N,,,,N,9:00 AM,,,4:00 PM,9:00 AM,,,4:00 PM,9:00 AM,,,4:00 PM,9:00 AM,,,4:00 PM,9:00 AM,,,4:00 PM,9:00 AM,,,4:00 PM,9:00 AM,,,4:00 PM,,1300 134 111,,,,,https://www.clinicallabs.com.au/about-us/doctor-media-releases/novel-coronavirus-nsw/,2023-04-04 2:45 pm
CID00167,Fairfield Histopath Pathology Drive-through Clinic,150.95702496897,-33.8770551310524,Fairfield Baseball Club,21 Ulverstone Street,Fairfield,NSW,2165,,Y,Y,N,N,,,,N,8:00 AM,,,4:00 PM,8:00 AM,,,4:00 PM,8:00 AM,,,4:00 PM,8:00 AM,,,4:00 PM,8:00 AM,,,4:00 PM,8:00 AM,,,4:00 PM,8:00 AM,,,4:00 PM,,(02) 9878 8111,,,,,https://www.histopath.com.au/,2023-04-18 9:45 am
CID00173,Forbes Hospital Clinic,148.014068917105,-33.395789605677,,Elgin Street,Forbes,NSW,2871,,Y,Y,N,Y,,02 6850 7100,,N,12:30 PM,,,1:30 PM,12:30 PM,,,1:30 PM,12:30 PM,,,1:30 PM,12:30 PM,,,1:30 PM,12:30 PM,,,1:30 PM,,,,,,,,,,,,,"Bookings can be made by calling the Forbes Hospital on (02) 6850 7100 8.30am to 5pm, Monday to Friday.",,,2022-07-06 2:45 pm
CID00190,Grafton Base Hospital Clinic,152.94063302686195,-29.675238104792722,Grafton Base Hospital,Arthur Street,Grafton,NSW,2460,,N,Y,Y,N,,,,N,9:00 AM,,,1:00 PM,9:00 AM,,,1:00 PM,9:00 AM,,,1:00 PM,9:00 AM,,,1:00 PM,9:00 AM,,,1:00 PM,,,,,,,,,,,,,,,,2023-01-03 10:00 am
CID00196,Grenfell Drive-through Clinic,148.167338,-33.894345,Grenfell Community Health,80 Cowra Road,Grenfell,NSW,2810,,Y,Y,N,Y,,0458 481 457,,N,9:30 AM,,,10:30 AM,9:30 AM,,,10:30 AM,9:30 AM,,,10:30 AM,9:30 AM,,,10:30 AM,9:30 AM,,,10:30 AM,,,,,,,,,,,,,,Closed on public holidays.,,2023-01-18 9:45 am
CID00207,Haberfield 4Cyte Pathology Drive-through and Walk-in Clinic,151.133665313502,-33.882395961859,,181 Parramatta Road,Haberfield,NSW,2045,,Y,Y,Y,N,,,,N,7:00 AM,,,8:00 PM,7:00 AM,,,8:00 PM,7:00 AM,,,8:00 PM,7:00 AM,,,8:00 PM,7:00 AM,,,8:00 PM,7:00 AM,,,8:00 PM,7:00 AM,,,8:00 PM,,13 42 98,,,,,https://www.4cyte.com.au/,2023-04-24 12:00 pm
CID00208,Hammondville 4Cyte Pathology Drive-through and Walk-in Clinic,150.95676414571,-33.9552897265724,Moorebank Sports Club,230 Heathcote Road,Hammondville,NSW,2170,,Y,Y,Y,N,,,,N,8:00 AM,,,4:00 PM,8:00 AM,,,4:00 PM,8:00 AM,,,4:00 PM,8:00 AM,,,4:00 PM,8:00 AM,,,4:00 PM,,,,,,,,,,13 42 98,,,,,https://www.4cyte.com.au/,2023-04-24 12:00 pm
CID00217,Hinchinbrook 4Cyte Pathology Drive-through and Walk-in Clinic,150.869041667214,-33.9256577984073,Hoxton Park Seven-Day Adventist Church,355 Hoxton Park Road,Hinchinbrook,NSW,2168,,Y,Y,Y,N,,,,N,7:00 AM,,,6:00 PM,7:00 AM,,,6:00 PM,7:00 AM,,,6:00 PM,7:00 AM,,,6:00 PM,7:00 AM,,,4:00 PM,,,,,7:00 AM,,,6:00 PM,,13 42 98,,,,,https://www.4cyte.com.au/,2023-04-24 12:00 pm
CID00218,Hornsby Clinical Labs Pathology Drive-through Clinic,151.09601048669217,-33.70465828763677,Overflow Car Park Hornsby RSL,7-17 Ashley Street,Hornsby,NSW,2077,,Y,Y,N,N,,,,N,9:00 AM,,,5:00 PM,9:00 AM,,,5:00 PM,9:00 AM,,,5:00 PM,9:00 AM,,,5:00 PM,9:00 AM,,,5:00 PM,9:00 AM,,,5:00 PM,9:00 AM,,,5:00 PM,,1300 134 111,,,,,https://www.clinicallabs.com.au/about-us/doctor-media-releases/novel-coronavirus-nsw/,2023-03-23 4:15 pm
CID00220,Hurstville 4Cyte Pathology Walk-in Clinic,151.103134,-33.968307,,8 Ormonde Parade,Hurstville,NSW,2220,,N,Y,Y,N,,,,N,8:00 AM,,,6:00 PM,8:00 AM,,,6:00 PM,8:00 AM,,,6:00 PM,8:00 AM,,,6:00 PM,8:00 AM,,,6:00 PM,8:00 AM,,,6:00 PM,8:00 AM,,,6:00 PM,,13 42 98,,,,,https://www.4cyte.com.au/,2023-01-23 8:31 am
CID00228,Ivanhoe Walk-in Clinic,144.295394569482,-32.8941991889242,Ivanhoe Health Service,90 Columbus Street,Ivanhoe,NSW,2878,,N,Y,N,Y,,02 6990 2800,,N,8:30 AM,,,4:30 PM,8:30 AM,,,4:30 PM,8:30 AM,,,4:30 PM,8:30 AM,,,4:30 PM,8:30 AM,,,4:30 PM,,,,,,,,,,,,,,Closed on public holidays.,,2023-01-18 9:45 am
CID00237,Killara Histopath Pathology Walk-in Clinic,151.164548,-33.767487,"Dalcross Private Hospital Compound, Killara",26 Stanhope Road,Killara,NSW,2071,"NO PARKING in the premises, WALK-In only.",N,Y,Y,N,,,,N,8:00 AM,,,4:00 PM,8:00 AM,,,4:00 PM,8:00 AM,,,4:00 PM,8:00 AM,,,4:00 PM,8:00 AM,,,4:00 PM,8:00 AM,,,4:00 PM,8:00 AM,,,4:00 PM,,(02) 9878 8111,,,,,https://www.histopath.com.au/,2023-04-12 9:00 am
CID00247,Kyabram District Health Service Drive-through Clinic,145.0420678,-36.3151365,Kyabram District Health Service,88 Fenaughty Street,Kyabram,VIC,3619,Testing at the back of the Health Service. Enter via Pettifer Road.,Y,Y,N,N,,,,N,9:00 AM,,,11:00 AM,,,,,9:00 AM,,,11:00 AM,,,,,9:00 AM,,,11:00 AM,,,,,,,,,,,,,,Closed on public holidays.,https://www.hotdoc.com.au/medical-centres/sydney-NSW-1001/darlinghurst-respiratory-clinic/doctors,2023-01-18 9:45 am
CID00250,Lakemba Respiratory Clinic,151.0774665,-33.9211832,,96 Haldon Street,Lakemba,NSW,2195,Enter via Oneata Lane.,N,N,Y,N,https://www.hotdoc.com.au/medical-centres/lakemba-NSW-2195/lakemba-respiratory-clinic/doctors?purpose=respiratory,,,N,9:00 AM,,,6:00 PM,9:00 AM,,,6:00 PM,9:00 AM,,,6:00 PM,9:00 AM,,,6:00 PM,9:00 AM,,,6:00 PM,9:00 AM,,,6:00 PM,9:00 AM,,,6:00 PM,,,,,"For enquiries, please call 0420 253 456.",,,2023-04-21 10:15 am
CID00253,Lidcombe Histopath Pathology Drive-through and Walk-in Clinic,151.050842233133,-33.8847930366345,The Sydney University Cumberland Campus,Weeroona Road,Lidcombe,NSW,2141,The Sydney University Cumberland Campus. Enter via Gate 3.,Y,Y,Y,N,,,,N,8:00 AM,,,6:00 PM,8:00 AM,,,6:00 PM,8:00 AM,,,6:00 PM,8:00 AM,,,6:00 PM,8:00 AM,,,6:00 PM,8:00 AM,,,6:00 PM,8:00 AM,,,6:00 PM,,,,,,,https://www.histopath.com.au/,2023-04-26 10:30 am
CID00261,Liverpool 4Cyte Pathology Walk-in Clinic,150.911607,-33.916223,,169 Elizabeth Drive,Liverpool,NSW,2170,,N,N,Y,N,,,,N,8:00 AM,,,5:00 PM,8:00 AM,,,5:00 PM,8:00 AM,,,5:00 PM,8:00 AM,,,5:00 PM,8:00 AM,,,5:00 PM,8:00 AM,,,5:00 PM,,,,,,13 42 98,,,,,https://www.4cyte.com.au/,2023-03-13 3:15 pm
CID00262,Liverpool Clinical Labs Pathology Drive-through Clinic,150.925499,-33.925853,Rear Car Park,2-4 Speed Street,Liverpool,NSW,2170,Enter via Liverpool City Council car park,Y,Y,N,N,,,,N,9:00 AM,,,5:00 PM,9:00 AM,,,5:00 PM,9:00 AM,,,5:00 PM,9:00 AM,,,5:00 PM,9:00 AM,,,5:00 PM,9:00 AM,,,3:00 PM,9:00 AM,,,3:00 PM,,1300 134 111,,,,,https://www.clinicallabs.com.au/about-us/doctor-media-releases/novel-coronavirus-nsw/,2023-04-04 2:45 pm
CID00269,Macquarie Park Douglass Hanly Moir Pathology Drive-through Clinic,151.122811,-33.785228,,95 Epping Road,Macquarie Park,NSW,2113,,Y,Y,N,N,,,,N,7:30 AM,,,3:30 PM,7:30 AM,,,3:30 PM,7:30 AM,,,3:30 PM,7:30 AM,,,3:30 PM,7:30 AM,,,3:30 PM,7:30 AM,,,3:30 PM,7:30 AM,,,3:30 PM,,(02) 9855 6116,,,,,https://www.dhm.com.au/,2023-04-14 4:45 pm
CID00272,Maroubra / Heffron Park Histopath Pathology Drive-through Clinic,151.23181574431086,-33.94964625407855,Heffron Park Car Park,CornerÂ of Fitzgerald Avenue and Bunnerong Road,Maroubra,NSW,2035,Enter via Fitzgerald Avenue.,Y,Y,N,N,,,,N,7:00 AM,,,4:00 PM,7:00 AM,,,4:00 PM,7:00 AM,,,4:00 PM,7:00 AM,,,4:00 PM,7:00 AM,,,4:00 PM,,,,,,,,,,(02) 9878 8111,,,,,https://www.histopath.com.au/,2023-04-18 9:45 am
CID00279,Menindee Walk-in Clinic,142.41499393967325,-32.390146382880644,Menindee Health Service,Perry Street,Menindee,NSW,2879,,N,Y,Y,N,,,,N,9:00 AM,,,5:00 PM,9:00 AM,,,5:00 PM,9:00 AM,,,5:00 PM,9:00 AM,,,5:00 PM,9:00 AM,,,5:00 PM,,,,,,,,,,,,,Phone 08 8083 2700 prior to arrival.,Closed on public holidays.,,2023-01-18 10:00 am
CID00280,Merriwa Multi-Purpose Service Clinic,150.361118823777,-32.1417153349759,,46 Mackenzie Street,Merriwa,NSW,2329,,N,N,Y,Y,,65325000,,N,1:45 PM,,,2:45 PM,1:45 PM,,,2:45 PM,1:45 PM,,,2:45 PM,1:45 PM,,,2:45 PM,,,,,,,,,,,,,,,,,,,,2023-01-03 10:30 am
CID00285,Minchinbury Histopath Pathology Drive-through Clinic,150.828389,-33.78089,,Great Western Highway,Minchinbury,NSW,2770,,Y,Y,N,N,,,,N,8:00 AM,,,4:00 PM,8:00 AM,,,4:00 PM,8:00 AM,,,4:00 PM,8:00 AM,,,4:00 PM,8:00 AM,,,4:00 PM,8:00 AM,,,4:00 PM,8:00 AM,,,4:00 PM,,(02) 9878 8111,,,,,https://www.histopath.com.au/,2023-04-18 9:45 am
CID00288,Miranda Medical Centre,151.10199,-34.033695,,573 Kingsway,Miranda,NSW,2228,Enter from Penprase Lane and follow signage.,N,N,N,Y,,(02) 9540 1044,,N,8:00 AM,,,12:00 PM,8:00 AM,,,12:00 PM,8:00 AM,,,12:00 PM,8:00 AM,,,12:00 PM,8:00 AM,,,12:00 PM,8:00 AM,,,12:00 PM,8:00 AM,,,12:00 PM,,,,,,,,2023-02-05 8:00 pm
CID00289,Mittagong Respiratory Clinic,150.4430588,-34.4523287,,58 Bowral Road,Mittagong,NSW,2575,In the lower level of Mittagong Health Care Centre.,N,N,Y,Y,https://www.hotdoc.com.au/medical-centres/mittagong-NSW-2575/mittagong-respiratory-clinic/doctors?purpose=respiratory,,,N,8:00 AM,,,5:00 PM,8:00 AM,,,5:00 PM,8:00 AM,,,5:00 PM,8:00 AM,,,5:00 PM,8:00 AM,,,5:00 PM,8:00 AM,,,5:00 PM,9:00 AM,,,5:00 PM,,,,,,,,2023-01-03 12:00 pm
CID00290,Molong Multi-Purpose Health Service Clinic,148.859538098009,-33.0861132737222,,King Street,Molong,NSW,2866,,N,Y,Y,Y,,(02) 6369 4100,,N,,,,,10:00 AM,,,11:00 AM,,,,,10:00 AM,,,11:00 AM,,,,,,,,,,,,,,,,,"Bookings can be made by calling the MPS 8.30am to 5pm, Monday to Friday.",,,2022-12-20 11:30 am
CID00291,Mona Vale Hospital Clinic,151.30727769333032,-33.68602706153368,"Gate 3, Building 1A, Mona Vale Hospital",18 Coronation Street,Mona Vale,NSW,2103,Street parking.,N,Y,Y,N,,,6 months+,N,8:00 AM,,,4:00 PM,8:00 AM,,,4:00 PM,8:00 AM,,,4:00 PM,8:00 AM,,,4:00 PM,8:00 AM,,,4:00 PM,8:00 AM,,,4:00 PM,8:00 AM,,,4:00 PM,,,,"Children under the age 6 Months will not be tested at this clinic.
Children should attend their nearest Emergency Department or local GP so a full medical assessment can be undertaken.",,,,2023-02-13 3:06 pm
CID00295,Morisset 4Cyte Pathology Drive-through Clinic,151.4788513,-33.107372074383235,Morisset Showground,40 Ourimbah Street,Morisset,NSW,2264,Enter Showgrounds and drive through the Pavillion.,Y,Y,N,N,,,,N,7:30 AM,,,3:30 PM,7:30 AM,,,3:30 PM,7:30 AM,,,3:30 PM,7:30 AM,,,3:30 PM,7:30 AM,,,3:30 PM,,,,,,,,,,13 42 98,,,,,https://www.4cyte.com.au/,2023-04-24 9:00 am
CID00311,Nambucca Respiratory Clinic,152.987919,-30.65453557736035,Nambucca Plaza,2191 Giinagay Way,Nambucca Heads,NSW,2488,,Y,N,N,Y,https://www.hotdoc.com.au/medical-centres/nambucca-heads-NSW-2448/nambucca-healthcare-centre/doctors?purpose=respiratory,,,N,9:00 AM,,,12:00 PM,9:00 AM,,,12:00 PM,9:00 AM,,,12:00 PM,9:00 AM,,,12:00 PM,9:00 AM,,,12:00 PM,,,,,,,,,,,,,,Closed on public holidays.,,2023-01-18 10:00 am
CID00318,Nathalia Hospital Clinic,145.197562168607,-36.0572537271142,,36-44 McDonell Street,Nathalia,VIC,3638,,N,N,N,Y,,(03) 5866 9444,,N,11:00 AM,,,12:00 PM,11:00 AM,,,12:00 PM,11:00 AM,,,12:00 PM,11:00 AM,,,12:00 PM,11:00 AM,,,12:00 PM,,,,,,,,,,,,,,,,2021-11-26 4:34 pm
CID00325,Northeast Health Wangaratta Drive-through,146.305340768618,-36.3629980800358,,53-61 Tone Road,Wangaratta,VIC,3677,Enter via Vincent Road.,Y,Y,N,Y,https://www.northeasthealth.org.au/covid-19/,,5+,N,8:30 AM,,,3:30 PM,8:30 AM,,,3:30 PM,8:30 AM,,,3:30 PM,8:30 AM,,,3:30 PM,8:30 AM,,,3:30 PM,8:30 AM,,,3:30 PM,8:30 AM,,,3:30 PM,,,,Children under the age 5 years will not be tested at this clinic.,,,,2021-12-21 11:15 am
CID00326,Frenchs Forest Clinical Labs Pathology Drive-through Clinic,151.233019,-33.751134,Northern Beaches Hospital,105 Frenchs Forest Road (West),Frenchs Forest,NSW,2086,Rear of Emergency Department,Y,Y,N,N,,,,N,9:00 AM,,,5:00 PM,9:00 AM,,,5:00 PM,9:00 AM,,,5:00 PM,9:00 AM,,,5:00 PM,9:00 AM,,,5:00 PM,9:00 AM,,,5:00 PM,9:00 AM,,,5:00 PM,,1300 134 111,,,"For general enquiries, please select option 5 when calling the results line.",,https://www.clinicallabs.com.au/,2023-03-23 4:15 pm
CID00328,Nowra Southern.IML Pathology Drive-through Clinic,150.599965,-34.873694,,57 Junction Street,Nowra,NSW,2540,,Y,Y,N,N,,,,N,9:00 AM,,,5:00 PM,9:00 AM,,,5:00 PM,9:00 AM,,,5:00 PM,9:00 AM,,,5:00 PM,9:00 AM,,,5:00 PM,9:00 AM,,,12:00 PM,,,,,,1300 652 200,,,,Closed on public holidays.,https://www.clinicallabs.com.au/about-us/doctor-media-releases/novel-coronavirus-nsw/,2023-04-18 4:00 pm
CID00329,Numurkah Hospital,145.443580755116,-36.0993192735002,,2 Katamatite-Nathalia Road,Numurkah,VIC,3636,,N,N,N,Y,,,,N,9:00 AM,,,10:00 AM,9:00 AM,,,10:00 AM,9:00 AM,,,10:00 AM,9:00 AM,,,10:00 AM,9:00 AM,,,10:00 AM,,,,,,,,,,,,,,,,2021-11-26 4:34 pm
CID00331,Oatlands 4Cyte Pathology Drive-through Clinic,151.030409,-33.803187,Dundas Seventh-Day Adventist Church,40 Kissing Point Road,Oatlands,NSW,2117,,Y,Y,N,N,,,,N,8:00 AM,,,6:00 PM,8:00 AM,,,6:00 PM,8:00 AM,,,6:00 PM,8:00 AM,,,6:00 PM,8:00 AM,,,6:00 PM,,,,,8:00 AM,,,6:00 PM,,13 42 98,,,,,https://www.4cyte.com.au/,2023-04-24 12:01 pm
CID00334,Ochre Health - Boggabri Respiratory Clinic,150.054292,-30.7212293,Boggabri Golf Club,Kamilaroi Highway,Boggabri,NSW,2382,,N,N,N,Y,https://www.hotdoc.com.au/medical-centres/boggabri-NSW-2382/gunnedah-boggabri-and-narrabri-respiratory-clinic/doctors?purpose=respiratory,,,N,,,,,,,,,,,,,,,,,9:00 AM,,,1:00 PM,,,,,,,,,,,,,"Please note if this clinic is unavailable on a particular day, you can book at another Ochre Health clinic.",Closed on public holidays.,,2023-01-18 10:00 am
CID00343,Parkes Health Service,148.17065392132122,-33.15205266774547,Parkes Hospital,2 Morrissey Way,Parkes,NSW,2870,,N,Y,Y,N,,,,N,1:00 PM,,,2:00 PM,1:00 PM,,,2:00 PM,1:00 PM,,,2:00 PM,1:00 PM,,,2:00 PM,1:00 PM,,,2:00 PM,,,,,,,,,,,,,,,,2023-01-20 1:00 pm
CID00346,Parramatta Clinical Labs Pathology Drive-through Clinic,151.021490958763,-33.807869204622,University of Western Sydney North Campus,70 Pemberton Street,Parramatta,NSW,2150,,Y,Y,N,N,,,,N,9:00 AM,,,5:00 PM,9:00 AM,,,5:00 PM,9:00 AM,,,5:00 PM,9:00 AM,,,5:00 PM,9:00 AM,,,5:00 PM,9:00 AM,,,5:00 PM,9:00 AM,,,5:00 PM,,1300 134 111,,,,,https://www.clinicallabs.com.au/about-us/doctor-media-releases/novel-coronavirus-nsw/,2023-03-23 4:15 pm
CID00354,Penrith Clinical Labs Pathology Walk-in Clinic,150.696029697585,-33.752842273738,,489 High Street,Penrith,NSW,2750,,N,N,Y,N,,,,N,9:00 AM,,,3:30 PM,9:00 AM,,,3:30 PM,9:00 AM,,,3:30 PM,9:00 AM,,,3:30 PM,9:00 AM,,,3:30 PM,,,,,,,,,,(02) 8745 6500,,,,,https://www.clinicallabs.com.au/,2023-03-23 4:15 pm
CID00356,Picton Respiratory Clinic,150.613686042888,-34.1688377768772,,9 Margaret Street,Picton,NSW,2571,Park as close to the Purple Flag as possible. Remain in your car with your mask on. Call 1300 545 245 to advise you have arrived.,Y,Y,Y,Y,,1300 545 245,,N,9:00 AM,12:30 PM,1:30 PM,5:30 PM,9:00 AM,12:30 PM,1:30 PM,5:30 PM,9:00 AM,12:30 PM,1:30 PM,5:30 PM,9:00 AM,12:30 PM,1:30 PM,5:30 PM,9:00 AM,12:30 PM,1:30 PM,5:30 PM,9:00 AM,,,12:30 PM,,,,,,,,,,,,2023-01-03 10:30 am
CID00360,Prestons 4Cyte Pathology Drive-through and Walk-in Clinic,150.874204,-33.951824,Ash Road Sporting Complex,Ash Road,Prestons,NSW,2170,,Y,Y,Y,N,,,,N,7:00 AM,,,4:00 PM,7:00 AM,,,4:00 PM,7:00 AM,,,4:00 PM,7:00 AM,,,4:00 PM,7:00 AM,,,4:00 PM,,,,,,,,,,,,,,,https://www.4cyte.com.au/,2023-04-24 12:01 pm
CID00363,Quakers Hill Clinical Labs Drive-through Clinic,150.881433,-33.736553,Melrose Park,6 Melrose Avenue,Quakers Hill,NSW,2763,,Y,Y,N,N,,,,N,9:00 AM,,,5:00 PM,9:00 AM,,,5:00 PM,9:00 AM,,,5:00 PM,9:00 AM,,,5:00 PM,9:00 AM,,,5:00 PM,9:00 AM,,,5:00 PM,9:00 AM,,,5:00 PM,,,,,,,https://www.clinicallabs.com.au/,2023-03-23 4:15 pm
CID00364,Quakers Hill Histopath Pathology Drive-through Clinic,150.875264684652,-33.7266922262078,"Western Sydney University Quakers Hill Campus, Carpark 8",Warawara Circuit,Quakers Hill NSW,NSW,2763,,Y,Y,N,N,,,,N,8:00 AM,,,4:00 PM,8:00 AM,,,4:00 PM,8:00 AM,,,4:00 PM,8:00 AM,,,4:00 PM,8:00 AM,,,4:00 PM,8:00 AM,,,4:00 PM,8:00 AM,,,4:00 PM,,(02) 9878 8111,,,,,https://www.histopath.com.au/,2023-04-18 9:45 am
CID00367,Queanbeyan East Histopath Pathology Drive-through Clinic,149.241934078137,-35.3452143517583,Seiffert Oval,36 Thurralilly Street,Queanbeyan East,NSW,2620,,Y,Y,N,N,,,,N,8:00 AM,,,4:00 PM,8:00 AM,,,4:00 PM,8:00 AM,,,4:00 PM,8:00 AM,,,4:00 PM,8:00 AM,,,4:00 PM,8:00 AM,,,4:00 PM,8:00 AM,,,4:00 PM,,(02) 9878 8111,,,,,https://www.histopath.com.au/,2023-04-18 9:45 am
CID00374,Raymond Terrace Histopath Pathology Drive-through Clinic,151.78305338465924,-32.758726469634226,Lakeside Leisure Way Centre,4 Leisure Way,Raymond Terrace,NSW,2324,Site located at the Lakeside Leisure Way Centre Carpark,Y,Y,N,N,,,,N,8:00 AM,,,4:00 PM,8:00 AM,,,4:00 PM,8:00 AM,,,4:00 PM,8:00 AM,,,4:00 PM,8:00 AM,,,4:00 PM,8:00 AM,,,4:00 PM,8:00 AM,,,4:00 PM,,(02) 9878 8111,,,,,https://www.histopath.com.au/,2023-04-26 10:30 am
CID00379,Richmond Histopath Pathology Drive-through Clinic,150.746772667372,-33.614419741272,Western Sydney University Hawkesbury Campus Car Park,47 off Vines Drive,Richmond,NSW,2753,,Y,Y,N,N,,,,N,8:00 AM,,,4:00 PM,8:00 AM,,,4:00 PM,8:00 AM,,,4:00 PM,8:00 AM,,,4:00 PM,8:00 AM,,,4:00 PM,8:00 AM,,,4:00 PM,8:00 AM,,,4:00 PM,,(02) 9878 8111,,,,,https://www.histopath.com.au/,2023-04-18 9:45 am
CID00381,Riverwood Clinical Labs Pathology Walk-In Clinic,151.046192480235,-33.9497916649999,Riverwood Park,79 Coleridge Street,Riverwood,NSW,2210,,N,Y,Y,N,,,,N,9:00 AM,,,4:00 PM,9:00 AM,,,4:00 PM,9:00 AM,,,4:00 PM,9:00 AM,,,4:00 PM,9:00 AM,,,4:00 PM,9:00 AM,,,4:00 PM,9:00 AM,,,4:00 PM,,(02) 8745 6500,,,,,https://www.clinicallabs.com.au/,2023-04-04 2:46 pm
CID00382,Robinvale District Health Service Hospital Car Park,142.780866285425,-34.5841158887042,,128-132 Latje Road,Robinvale,VIC,3549,,Y,Y,N,Y,,(03) 5051 8111,,N,9:00 AM,,,4:30 PM,9:00 AM,,,4:30 PM,9:00 AM,,,4:30 PM,9:00 AM,,,4:30 PM,9:00 AM,,,4:30 PM,9:00 AM,,,4:30 PM,9:00 AM,,,4:30 PM,,,,,,,,2021-12-21 9:45 am
CID00383,Rockdale 4Cyte Pathology Drive-through and Walk-in Clinic,151.138116584353,-33.9557800317061,,594-596 Princes Highway,Rockdale,NSW,2216,,Y,Y,Y,N,,,,N,8:00 AM,,,6:00 PM,8:00 AM,,,6:00 PM,8:00 AM,,,6:00 PM,8:00 AM,,,6:00 PM,8:00 AM,,,6:00 PM,8:00 AM,,,6:00 PM,8:00 AM,,,6:00 PM,,13 42 98,,,,Closed on public holidays.,https://www.4cyte.com.au/,2023-04-24 12:01 pm
CID00385,Rosebery 4Cyte Pathology Walk-in Clinic,151.200160666997,-33.9172624015633,Shop 2,781 Hayes Road,Rosebery,NSW,2108,,N,Y,Y,N,,,,N,8:00 AM,,,6:00 PM,8:00 AM,,,6:00 PM,8:00 AM,,,6:00 PM,8:00 AM,,,6:00 PM,8:00 AM,,,6:00 PM,8:00 AM,,,6:00 PM,8:00 AM,,,6:00 PM,,13 42 98,,,,Closed on public holidays.,https://www.4cyte.com.au/,2023-04-24 12:01 pm
CID00387,Northshore Roseville Respiratory Clinic,151.1757788,-33.784101,,132A Pacific Highway,Roseville,NSW,2069,"In a white marque on the left-hand side of the main medical centre, Rosecentre. Pedestrian access is down the left side walkway. Parking is available along the Pacific Highway.",N,Y,Y,Y,https://www.hotdoc.com.au/medical-centres/roseville-NSW-2069/roseville-respiratory-clinic/doctors?purpose=respiratory,0458 604 096,,N,7:30 AM,,,6:00 PM,7:30 AM,,,6:00 PM,7:30 AM,,,6:00 PM,7:30 AM,,,6:00 PM,7:30 AM,,,6:00 PM,7:30 AM,,,4:00 PM,8:00 AM,,,4:00 PM,,,,,"To book, call or text name and preferred time to 0458 604 096.",,http://www.rosecentre.com.au/north-shore-respiratory-clinic-roseville/,2023-01-03 12:00 pm
CID00388,Rouse Hill Histopath Pathology Drive-through and Walk-in Clinic,150.90941529088,-33.6823822294103,,32 Worcester Road,Rouse Hill,NSW,2155,,Y,Y,Y,N,,,,N,8:00 AM,,,6:00 PM,8:00 AM,,,6:00 PM,8:00 AM,,,6:00 PM,8:00 AM,,,6:00 PM,8:00 AM,,,6:00 PM,8:00 AM,,,6:00 PM,8:00 AM,,,6:00 PM,,,,,,,https://www.histopath.com.au/,2023-04-18 9:46 am
CID00389,Royal North Shore Hospital Clinic,151.193083914011,-33.8202359887029,"Royal North Shore COVID-19 Screening Clinic, Building 22",Herbert Street,St Leonards,NSW,2065,,N,Y,Y,N,,,6 months+,N,8:00 AM,,,4:00 PM,8:00 AM,,,4:00 PM,8:00 AM,,,4:00 PM,8:00 AM,,,4:00 PM,8:00 AM,,,4:00 PM,8:00 AM,,,4:00 PM,8:00 AM,,,4:00 PM,,,,Children under the age 6 Months will not be tested at this clinic.,,,,2023-02-13 3:07 pm
CID00394,Rylstone Multi-Purpose Health Service Clinic,149.975586155674,-32.8042185808735,,Fitzgerald Street,Rylstone,NSW,2849,,N,Y,Y,Y,,02 6357 6100,,N,10:00 AM,,,11:00 AM,10:00 AM,,,11:00 AM,10:00 AM,,,11:00 AM,10:00 AM,,,11:00 AM,10:00 AM,,,11:00 AM,,,,,,,,,,,,,Booking required call to make an appointment.,Closed on public holidays.,,2023-01-18 10:00 am
CID00400,Shepparton Health Acute Respiratory Clinic,145.397084510947,-36.3826835425347,,172 Welsford Street,Shepparton,VIC,3630,,N,N,Y,N,,,,N,8:00 AM,,,4:00 PM,8:00 AM,,,4:00 PM,8:00 AM,,,4:00 PM,8:00 AM,,,4:00 PM,8:00 AM,,,4:00 PM,8:00 AM,,,4:00 PM,8:00 AM,,,4:00 PM,,,,,,,,2022-01-02 3:48 pm
CID00401,Shepparton Showgrounds Goulburn Valley Health Drive-Through clinic,145.411352297454,-36.3816241552635,Shepparton Showgrounds,High Street Shepparton,Shepparton,VIC,3630,,Y,Y,Y,Y,https://www.hotdoc.com.au/medical-centres/shepparton-VIC-3630/shepparton-respiratory-clinic/doctors?purpose=respiratory,,,N,8:45 AM,,,4:45 PM,8:45 AM,,,4:45 PM,8:45 AM,,,4:45 PM,8:45 AM,,,4:45 PM,8:45 AM,,,4:45 PM,8:45 AM,,,4:45 PM,8:45 AM,,,4:45 PM,,,,,,,,2022-01-04 11:32 am
CID00410,South Tweed Heads 4Cyte Pathology Drive-through and Walk-in Clinic,153.5419477,-28.2053942,,157-161 Minjungbal Drive (Corner of Minjungbal Drive and Rivendell Drive),South Tweed Heads,NSW,2485,,Y,Y,Y,N,,,,N,7:00 AM,,,5:00 PM,7:00 AM,,,5:00 PM,7:00 AM,,,5:00 PM,7:00 AM,,,5:00 PM,7:00 AM,,,5:00 PM,8:00 AM,,,4:00 PM,8:00 AM,,,4:00 PM,,13 42 98,,,,,https://www.4cyte.com.au/,2023-04-24 12:01 pm
CID00418,Stanhope Gardens Clinical Labs Pathology Drive-through Clinic,150.923008271515,-33.717919885622,Blacktown Leisure Centre,Stanhope Parkway,Stanhope Gardens,NSW,2768,,Y,Y,N,N,,,,N,9:00 AM,,,5:00 PM,9:00 AM,,,5:00 PM,9:00 AM,,,5:00 PM,9:00 AM,,,5:00 PM,9:00 AM,,,5:00 PM,9:00 AM,,,5:00 PM,9:00 AM,,,5:00 PM,,,,,,,https://www.clinicallabs.com.au/,2023-03-23 4:15 pm
CID00419,Stanmore 4Cyte Pathology Drive-through and Walk-in Clinic,151.168556,-33.898705,Cyprus Community of NSW,58/76 Stanmore Road,Stanmore,NSW,2048,,Y,Y,Y,N,,,,N,7:00 AM,,,4:00 PM,7:00 AM,,,4:00 PM,7:00 AM,,,4:00 PM,7:00 AM,,,4:00 PM,7:00 AM,,,4:00 PM,7:00 AM,,,4:00 PM,7:00 AM,,,4:00 PM,,13 42 98,,,,,https://www.4cyte.com.au/,2023-04-24 12:01 pm
CID00427,4Cyte Pathology Sydney,151.212078618761,-33.8671220871843,,4/195 Macquarie Street,Sydney,NSW,2000,,N,Y,Y,N,,,,N,8:00 AM,,,4:00 PM,8:00 AM,,,4:00 PM,8:00 AM,,,4:00 PM,8:00 AM,,,4:00 PM,8:00 AM,,,4:00 PM,,,,,,,,,,13 42 98,,,,,https://www.4cyte.com.au/,2023-04-04 2:45 pm
CID00428,Sydney 4Cyte Pathology Walk-in Clinic,151.203672562157,-33.8825631652795,,803-813 George Street,Sydney,NSW,2000,Opposite Central Railway Station.,N,Y,Y,N,,,,N,7:00 AM,,,8:00 PM,7:00 AM,,,8:00 PM,7:00 AM,,,8:00 PM,7:00 AM,,,8:00 PM,7:00 AM,,,8:00 PM,7:00 AM,,,8:00 PM,7:00 AM,,,8:00 PM,,13 42 98,,,,,https://www.4cyte.com.au/,2023-01-23 8:45 am
CID00431,Tahmoor Clinical Labs Pathology Drive-through Clinic,150.591545,-34.226734,,158 Remembrance Driveway,Tahmoor,NSW,2573,,Y,Y,N,N,,,,N,11:00 AM,,,1:00 PM,11:00 AM,,,1:00 PM,11:00 AM,,,1:00 PM,11:00 AM,,,1:00 PM,11:00 AM,,,1:00 PM,,,,,,,,,,(02) 8745 6500,,,,,https://www.clinicallabs.com.au/,2023-04-04 2:46 pm
CID00432,Tamworth Douglass Hanly Moir Pathology Walk-In Clinic,150.926182,-31.087141,Suite 3,199 Peel Street,Tamworth,NSW,2340,,N,N,Y,N,,,,N,8:30 AM,,,4:00 PM,8:30 AM,,,4:00 PM,8:30 AM,,,4:00 PM,8:30 AM,,,4:00 PM,8:30 AM,,,4:00 PM,8:30 AM,,,10:30 AM,,,,,,(02) 9855 6116,,All Ages. ,No Bookings required,,https://www.dhm.com.au/,2023-04-14 4:45 pm
CID00435,Tamworth Respiratory Clinic,150.9228782,-31.1124398,,255a Goonooo Goonoo Road,Tamworth,NSW,2340,Enter the car park via Edgeroy Street and present to the front door at your appointment time.,N,Y,Y,Y,https://www.hotdoc.com.au/medical-centres/tamworth-NSW-2340/tamworth-respiratory-clinic/doctors?purpose=respiratory,(02) 6768 3288,,N,8:30 AM,,,5:00 PM,8:30 AM,,,5:00 PM,8:30 AM,,,5:00 PM,8:30 AM,,,5:00 PM,8:30 AM,,,5:00 PM,9:00 AM,,,3:30 PM,9:00 AM,,,3:30 PM,,,,,,,,2023-01-03 12:00 pm
CID00436,Taree Douglass Hanly Moir Pathology Walk-In Clinic,152.458148,-31.911263,Suite 1,65 Pulteney Street,Taree,NSW,2430,,N,N,Y,Y,,"1800 026 622,(02) 9111 3405",,N,8:00 AM,,,4:00 PM,8:00 AM,,,4:00 PM,8:00 AM,,,4:00 PM,8:00 AM,,,4:00 PM,8:00 AM,,,4:00 PM,,,,,,,,,,(02) 9855 6116,,,,,https://www.dhm.com.au/,2023-04-05 5:30 pm
CID00440,Telarah Histopath Pathology Drive-through Clinic,151.527854294736,-32.7274291106582,,84 Green Street,Telarah,NSW,2320,,Y,Y,N,N,,,,N,8:00 AM,,,4:00 PM,8:00 AM,,,4:00 PM,8:00 AM,,,4:00 PM,8:00 AM,,,4:00 PM,8:00 AM,,,4:00 PM,8:00 AM,,,4:00 PM,8:00 AM,,,4:00 PM,,(02) 9878 8111,,,,,https://www.histopath.com.au/,2023-04-04 2:46 pm
CID00445,Tibooburra Walk-in Clinic,142.012165255297,-29.4329348702672,Tibooburra Health Service,Sturt Street,Tibooburra,NSW,2880,,N,Y,Y,N,,,,N,9:00 AM,,,5:00 PM,9:00 AM,,,5:00 PM,9:00 AM,,,5:00 PM,9:00 AM,,,5:00 PM,9:00 AM,,,5:00 PM,,,,,,,,,,,,,,Closed on public holidays.,,2023-01-18 10:15 am
CID00446,Tottenham Multi-Purpose Health Service Drive-through Clinic,147.349816297991,-32.2418411936352,,Lot 10 Moodana Street,Tottenham,NSW,2873,,Y,Y,Y,N,,,,N,8:00 AM,,,1:00 PM,8:00 AM,,,1:00 PM,8:00 AM,,,1:00 PM,8:00 AM,,,1:00 PM,8:00 AM,,,1:00 PM,,,,,,,,,,,,,,,,2023-01-10 10:45 am
CID00447,Towradgi Histopath Drive-through and Walk-in Clinic,150.910530025021,-34.3839131067776,,Ray Robinson Oval Car Park,Towradgi,NSW,2518,Enter via Moray Road,Y,Y,Y,N,,,,N,8:00 AM,,,3:00 PM,8:00 AM,,,3:00 PM,8:00 AM,,,3:00 PM,8:00 AM,,,3:00 PM,8:00 AM,,,3:00 PM,,,,,8:00 AM,,,3:00 PM,,(02) 9878 8111,,,,,https://www.histopath.com.au/,2023-04-18 9:31 am
CID00448,Trangie Multi-Purpose Health Service Drive-through Clinic,147.976995209075,-32.030466779447,,28 Harris Street,Trangie,NSW,2821,,Y,Y,Y,N,,,,N,10:00 AM,,,11:00 AM,10:00 AM,,,11:00 AM,10:00 AM,,,11:00 AM,10:00 AM,,,11:00 AM,10:00 AM,,,11:00 AM,,,,,,,,,,,,,,Closed on public holidays.,,2023-01-18 10:15 am
CID00449,Trundle Multi-Purpose Health Service Drive-through Clinic,147.705173328132,-32.9211185389855,,44 Brookview Street,Trundle,NSW,2875,,Y,Y,Y,N,,,,N,8:00 AM,,,12:00 PM,8:00 AM,,,12:00 PM,8:00 AM,,,12:00 PM,8:00 AM,,,12:00 PM,8:00 AM,,,12:00 PM,,,,,,,,,,,,,,,,2023-01-10 12:00 pm
CID00451,Tullamore Multi-Purpose Health Service Drive-through Walk-In Clinic,147.569515043467,-32.6345303152643,,1-5 Hinkler Street,Tullamore,NSW,2874,,Y,Y,Y,N,,,,N,8:00 AM,,,4:30 PM,8:00 AM,,,4:30 PM,8:00 AM,,,4:30 PM,8:00 AM,,,4:30 PM,8:00 AM,,,4:30 PM,,,,,,,,,,,,,,,,2022-05-30 5:30 pm
CID00453,Tumut Respiratory Clinic,148.2098946,-35.2954524,Old Railway Precinct,Snowy Mountains Highway,Tumut,NSW,2720,,N,N,N,Y,https://www.hotdoc.com.au/medical-centres/tumut-NSW-2720/tumut-respiratory-clinic/doctors?purpose=respiratory,,,N,,,,,,,,,,,,,8:30 AM,,,10:30 AM,,,,,,,,,,,,,,,,,,Closed on public holidays.,https://www.health.gov.au/initiatives-and-programs/coronavirus-covid-19-gp-respiratory-clinics,2023-01-18 10:15 am
CID00466,Walgett Mobile Respiratory Clinic,148.1188795,-30.0226256,,37 Pitt Street,Walgett,NSW,2832,,N,N,N,Y,,(02) 6820 3777,,N,9:00 AM,,,5:00 PM,9:00 AM,,,5:00 PM,9:00 AM,,,5:00 PM,9:00 AM,,,5:00 PM,9:00 AM,,,5:00 PM,,,,,,,,,,,,,Testing available by appointment on public holidays.,,,2023-01-03 2:15 pm
CID00467,Walgett Multi-Purpose Health Service Drive-through and Walk-In Clinic,148.115613331419,-30.0308425756997,"Ambulance Bay, Walgett Multi-Purpose Services",Fox Street,Walgett,NSW,2832,,Y,Y,Y,Y,,(02) 6817 9400,,N,9:00 AM,,,12:00 PM,9:00 AM,,,12:00 PM,9:00 AM,,,12:00 PM,9:00 AM,,,12:00 PM,9:00 AM,,,12:00 PM,,,,,,,,,,,,,,Closed on public holidays.,,2023-01-18 10:15 am
CID00468,Wallsend 4Cyte Pathology Drive-through Clinic,151.669261,-32.90248,,173 Nelson Street,Wallsend,NSW,2287,,Y,Y,N,Y,https://www.medtechservices.net.au/covid19-wallsend,,,N,9:00 AM,,,5:00 PM,9:00 AM,,,5:00 PM,9:00 AM,,,5:00 PM,9:00 AM,,,5:00 PM,9:00 AM,,,5:00 PM,9:00 AM,,,11:30 AM,,,,,,13 42 98,,,,,https://www.4cyte.com.au/,2023-04-24 9:00 am
CID00470,Warilla Southern.IML Pathology Drive-through Clinic,150.860606,-34.551443,,109 Shellharbour Road,Warilla,NSW,2528,,Y,Y,N,N,,,,N,,,,,,,,,,,,,,,,,,,,,8:00 AM,,,3:00 PM,8:00 AM,,,3:00 PM,,1300 652 200,,,,Closed on public holidays.,https://www.southernpath.com.au/,2023-04-18 4:00 pm
CID00471,Warners Bay 4Cyte Pathology Drive-through Clinic,151.658862,-32.965261,Central Church,290 Hillsborough Road,Warners Bay,NSW,2282,,Y,Y,N,N,,,,N,8:00 AM,,,4:00 PM,8:00 AM,,,4:00 PM,8:00 AM,,,4:00 PM,8:00 AM,,,4:00 PM,8:00 AM,,,4:00 PM,8:00 AM,,,4:00 PM,,,,,,13 42 98,,,,,https://www.4cyte.com.au/,2023-04-24 9:00 am
CID00472,Warrawong Histopath Pathology Drive-through and Walk-in Clinic,150.872197110353,-34.4916575553577,Kully Bay Car Park,Northcliffe Drive,Warrawong,NSW,2502,East of The Illawarra Yacht Club,Y,Y,Y,N,,,,N,8:00 AM,,,6:00 PM,8:00 AM,,,6:00 PM,8:00 AM,,,6:00 PM,8:00 AM,,,6:00 PM,8:00 AM,,,6:00 PM,8:00 AM,,,6:00 PM,8:00 AM,,,6:00 PM,,(02) 9878 8111,,,,,https://www.histopath.com.au/,2023-04-18 9:00 am
CID00473,Warren Multi-Purpose Health Service Drive-through Clinic,147.837507969144,-31.6939812766075,,Dr Kater Drive,Warren,NSW,2824,,Y,Y,Y,Y,,02 6847 5400,,N,2:00 PM,,,3:00 PM,2:00 PM,,,3:00 PM,2:00 PM,,,3:00 PM,2:00 PM,,,3:00 PM,,,,,,,,,,,,,,,,,,Closed on public holidays.,,2023-01-18 10:15 am
CID00479,Wentworth Health Service Walk-in Clinic,141.92269671761403,-34.109798257447984,Wentworth Health Service,Silver City Highway,Wentworth,NSW,2648,,N,Y,Y,N,,,,N,9:00 AM,,,5:00 PM,9:00 AM,,,5:00 PM,9:00 AM,,,5:00 PM,9:00 AM,,,5:00 PM,9:00 AM,,,5:00 PM,,,,,,,,,,,,,,Closed on public holidays.,,2023-01-18 10:15 am
CID00480,Werrington Histopath Pathology Drive-through Clinic,150.746249273135,-33.7615884350957,Western Sydney University Werrington North,Great Western Highway,Werrington,NSW,2747,,Y,Y,N,N,,,,N,8:00 AM,,,6:00 PM,8:00 AM,,,6:00 PM,8:00 AM,,,6:00 PM,8:00 AM,,,6:00 PM,8:00 AM,,,6:00 PM,8:00 AM,,,6:00 PM,8:00 AM,,,1:00 PM,Reduced hours due to University event,(02) 9878 8111,,,,,https://www.histopath.com.au/,2023-04-28 10:15 am
CID00487,White Cliffs Walk-in Clinic,143.089545350738,-30.8508787525607,White Cliffs Health Centre Ambulance Bay,Johnston Street,White Cliffs,NSW,2836,,N,Y,Y,Y,,02 8083 6200,,N,9:00 AM,,,5:00 PM,9:00 AM,,,5:00 PM,9:00 AM,,,5:00 PM,9:00 AM,,,5:00 PM,9:00 AM,,,5:00 PM,,,,,,,,,,,,,,Closed on public holidays.,,2023-01-18 10:30 am
CID00489,Wickham Histopath Pathology Drive-through Clinic,151.762898911595,-32.9251400805276,,42 Honeysuckle Drive,Wickham,NSW,2300,,Y,Y,N,N,,,,N,8:00 AM,,,6:00 PM,8:00 AM,,,6:00 PM,8:00 AM,,,6:00 PM,8:00 AM,,,6:00 PM,8:00 AM,,,6:00 PM,8:00 AM,,,6:00 PM,8:00 AM,,,6:00 PM,,(02) 9878 8111,,,,,https://www.histopath.com.au/,2023-04-26 10:30 am
CID00490,Wilcannia Health Service Testing Clinic,143.38535964860284,-31.556207663727193,Wilcannia Health Service,14 Ross Street,Wilcannia,NSW,2836,Enter via Ross Street.,Y,Y,Y,Y,,08 80838700,,N,8:30 AM,,,5:00 PM,8:30 AM,,,5:00 PM,8:30 AM,,,5:00 PM,8:30 AM,,,5:00 PM,8:30 AM,,,5:00 PM,,,,,,,,,,,,,"If you need a home test, call 0477 995 809.",Walk-in testing available 24/7.,,2023-01-03 10:15 am
CID00499,Wollongong Southern.IML Pathology Drive-through Clinic,150.888289161756,-34.4248717238257,,45 Denison Street,Wollongong,NSW,2500,,Y,Y,N,N,,,,N,8:00 AM,,,5:00 PM,8:00 AM,,,5:00 PM,8:00 AM,,,5:00 PM,8:00 AM,,,5:00 PM,8:00 AM,,,5:00 PM,8:00 AM,,,5:00 PM,,,,,,1300 652 200,,,,Closed on public holidays.,https://www.southernpath.com.au/,2023-04-18 4:00 pm
CID00506,Wyong Histopath Pathology Drive-through Clinic,151.427489702437,-33.2834561,,6 Rose Street,Wyong,NSW,2259,,Y,Y,N,N,,,,N,8:00 AM,,,4:00 PM,8:00 AM,,,4:00 PM,8:00 AM,,,4:00 PM,8:00 AM,,,4:00 PM,8:00 AM,,,4:00 PM,8:00 AM,,,4:00 PM,8:00 AM,,,4:00 PM,,(02) 9878 8111,,,,,https://www.histopath.com.au/,2023-03-24 1:30 pm
CID00511,Yarrawonga Health Hospital Clinic,146.006971697441,-36.01150700157,,65 Woods Road,Yarrawonga,VIC,3730,,N,N,N,Y,,(03) 5743 8111,,N,8:00 AM,,,10:00 AM,8:00 AM,,,10:00 AM,,,,,8:00 AM,,,10:00 AM,8:00 AM,,,10:00 AM,8:00 AM,,,10:00 AM,,,,,,,,,,Closed on public holidays.,,2022-01-02 3:49 pm
CID00515,Young Respiratory Clinic,148.3018087,-34.3144817,,12 Boorowa Street,Young,NSW,2594,At the rear of existing practice. Enter via rear entrance.,N,N,N,Y,"https://www.hotdoc.com.au/medical-centres/young-NSW-2594/young-respiratory-clinic/doctors?purpose=respiratory. For further information, please refer to https://www.health.gov.au/initiatives-and-programs/coronavirus-covid-19-gp-respiratory-clinics",,,N,8:30 AM,,,5:00 PM,8:30 AM,,,5:00 PM,8:30 AM,,,5:00 PM,8:30 AM,,,5:00 PM,8:30 AM,,,5:00 PM,,,,,,,,,,,,,,,https://www.health.gov.au/initiatives-and-programs/coronavirus-covid-19-gp-respiratory-clinics,2023-01-03 12:00 pm
CID00523,Wentworthville 4Cyte Pathology Walk-in Clinic,150.97407365353945,-33.808861775416176,Veron Street Car Park,69 Veron Street,Wentworthville,NSW,2145,,N,N,Y,N,,,,N,8:00 AM,,,6:00 PM,8:00 AM,,,6:00 PM,8:00 AM,,,6:00 PM,8:00 AM,,,6:00 PM,8:00 AM,,,6:00 PM,8:00 AM,,,6:00 PM,8:00 AM,,,6:00 PM,,13 42 98,,,,,https://www.4cyte.com.au/,2023-04-24 12:01 pm
CID00550,Beverly Hills 4Cyte Pathology Drive-through and Walk-in Clinic,151.08205790661023,-33.95348362576123,,143 Stoney Creek Road (Old RTA),Beverly Hills,NSW,2209,,Y,Y,Y,N,,,,N,8:00 AM,,,6:00 PM,8:00 AM,,,6:00 PM,8:00 AM,,,6:00 PM,8:00 AM,,,6:00 PM,8:00 AM,,,6:00 PM,8:00 AM,,,6:00 PM,8:00 AM,,,6:00 PM,,13 42 98,,,,,https://www.4cyte.com.au,2023-04-24 11:45 am
CID00560,Cooma Histopath Pathology Drive-through Clinic,149.1297419981825,-36.24132330420206,Cooma Hospital,Entry via Victoria street ,Cooma,NSW,2630,,Y,Y,Y,N,,,,N,8:00 AM,,,3:00 PM,8:00 AM,,,3:00 PM,8:00 AM,,,3:00 PM,8:00 AM,,,3:00 PM,8:00 AM,,,3:00 PM,8:00 AM,,,3:00 PM,8:00 AM,,,3:00 PM,,,,,,,https://www.histopath.com.au/,2023-04-18 2:45 pm
CID00562,Brighton Le Sands Histopath Pathology Drive-through Clinic,151.15399485015882,-33.95040878421178,,100 Bestic Street,Brighton Le Sands,NSW,2216,,Y,Y,Y,N,,,,N,8:00 AM,,,6:00 PM,8:00 AM,,,6:00 PM,8:00 AM,,,6:00 PM,8:00 AM,,,6:00 PM,8:00 AM,,,6:00 PM,8:00 AM,,,6:00 PM,8:00 AM,,,6:00 PM,,(02) 9878 8111,,,,,https://www.histopath.com.au/,2023-04-18 9:30 am
CID00567,St Georges Basin Southern.IML Pathology Drive Through Clinic,150.5788890592902,-35.087568399050106,St Georges Basin Sporting Complex,Panorama Road (off Wool Road),St Georges Basin,NSW,2540,,Y,Y,N,N,,,,N,8:30 AM,,,3:30 PM,8:30 AM,,,3:30 PM,8:30 AM,,,3:30 PM,8:30 AM,,,3:30 PM,8:30 AM,,,3:30 PM,,,,,8:30 AM,,,3:30 PM,,1300 652 200,,,,Closed on public holidays.,https://www.southernpath.com.au/,2023-04-18 4:00 pm
CID00585,Tenterfield Hospital Drive-through Clinic,152.01344714277,-29.04497252766475,,1-4 Naas Street,Tenterfield,NSW,2372,,Y,Y,Y,Y,,(02) 67395200,,N,,,,,,,,,,,,,,,,,9:30 AM,,,10:30 AM,,,,,,,,,,,,,,,,2022-12-22 10:45 am
CID00590,Ulladulla Histopath Pathology Drive-through Clinic,150.4753933155666,-35.359529678794644,Ulladulla Shopping Centre Car Park,85 South Street,Ulladulla,NSW,2539,,Y,Y,Y,N,,,,N,8:00 AM,,,3:00 PM,8:00 AM,,,3:00 PM,8:00 AM,,,3:00 PM,8:00 AM,,,3:00 PM,8:00 AM,,,3:00 PM,8:00 AM,,,3:00 PM,8:00 AM,,,3:00 PM,,(02) 9878 8111,,,,,https://www.histopath.com.au/,2023-04-18 9:31 am
CID00594,North Ryde Julius Avenue 4Cyte Drive-through and Walk-in Clinic,151.1402257,-33.796651,,7 Julius Avenue,North Ryde,NSW,2113,Entry into Newbigin Close,Y,Y,Y,N,,,,N,7:00 AM,,,8:00 PM,7:00 AM,,,8:00 PM,7:00 AM,,,8:00 PM,7:00 AM,,,8:00 PM,7:00 AM,,,8:00 PM,7:00 AM,,,8:00 PM,7:00 AM,,,8:00 PM,,134298,,,,,https://www.4cyte.com.au,2023-01-23 8:31 am
CID00597,Cabramatta 4Cyte Pathology Walk-in Clinic,150.93743641306634,-33.894398891951994,,Shop 2/39 Arthur Street,Cabramatta,NSW,2166,,N,Y,Y,N,,,,N,7:00 AM,,,5:00 PM,7:00 AM,,,5:00 PM,7:00 AM,,,5:00 PM,7:00 AM,,,5:00 PM,7:00 AM,,,5:00 PM,7:00 AM,,,3:00 PM,8:00 AM,,,12:00 PM,,134298,,,,,https://www.4cyte.com.au,2023-01-23 8:15 am
CID00599,Woollahra 4Cyte Pathology Walk-in Clinic,151.2324675400513,-33.88867466815619,,8 Oxford Street,Woollahra,NSW,2025,,N,Y,Y,N,,,,N,8:00 AM,,,6:00 PM,8:00 AM,,,6:00 PM,8:00 AM,,,6:00 PM,8:00 AM,,,6:00 PM,8:00 AM,,,6:00 PM,8:00 AM,,,6:00 PM,8:00 AM,,,6:00 PM,,134298,,,,,https://www.4cyte.com.au,2023-01-23 9:01 am
CID00601,Merrylands Histopath Pathology Drive-through Clinic,150.97715739758775,-33.833797857144226,Merrylands Park,Corner of Burnett Street and Merrylands Road,Merrylands,NSW,2160,,Y,Y,Y,N,,,,N,8:00 AM,,,6:00 PM,8:00 AM,,,6:00 PM,8:00 AM,,,6:00 PM,8:00 AM,,,6:00 PM,8:00 AM,,,6:00 PM,8:00 AM,,,6:00 PM,8:00 AM,,,6:00 PM,,(02) 9878 8111,,,,,https://www.histopath.com.au/,2023-04-18 9:45 am
CID00602,Wollongong Southern.IML Pathology Walk-in Clinic,150.88820605667738,-34.42479214333166,,45 Denison Street,Wollongong,NSW,2500,,N,Y,Y,N,,,,N,9:00 AM,,,3:00 PM,9:00 AM,,,3:00 PM,9:00 AM,,,3:00 PM,9:00 AM,,,3:00 PM,9:00 AM,,,3:00 PM,,,,,,,,,,1300 652 200,,,,Closed on public holidays.,https://www.southernpath.com.au/,2023-04-18 4:00 pm
CID00603,Bankstown Austech Drive-through and Walk-in Clinic,151.0338565824152,-33.932009112620705,,32 Cottam Avenue,Bankstown,NSW,2200,,Y,Y,Y,N,,,,N,8:00 AM,,,1:00 PM,8:00 AM,,,1:00 PM,8:00 AM,,,1:00 PM,8:00 AM,,,1:00 PM,8:00 AM,,,1:00 PM,,,,,,,,,,1300 265 000,,,,Closed on public holidays.,https://austechlabs.com.au/,2023-01-18 9:30 am
CID00607,Smithfield Histopath Pathology Walk-in Clinic,150.9388985576402,-33.8615059810347,,146 Polding Street,Smithfield,NSW,2164,,N,Y,Y,N,,,,N,8:00 AM,,,4:00 PM,8:00 AM,,,4:00 PM,8:00 AM,,,4:00 PM,8:00 AM,,,4:00 PM,8:00 AM,,,4:00 PM,8:00 AM,,,4:00 PM,8:00 AM,,,4:00 PM,,,,,,,https://www.histopath.com.au/,2023-04-18 9:00 am
CID00621,Broken Hill Community Health Centre Drive-through and Walk-in Clinic,141.4645827510821,-31.96036386874736,,Corner Sulphide Street and Crystal Street,Broken Hill,NSW,2880,,Y,Y,Y,N,,,,N,7:00 AM,,,11:00 AM,7:00 AM,,,11:00 AM,7:00 AM,,,11:00 AM,7:00 AM,,,11:00 AM,,,,,,,,,7:00 AM,,,11:00 AM,,,,,,Closed on public holidays.,,2023-01-18 9:30 am
CID00623,Redfern 4Cyte Pathology Walk-in Clinic,151.20113127692642,-33.8921081998882,,174 Redfern Street ,Redfern,NSW,2016,,N,Y,Y,N,,,,N,8:00 AM,,,6:00 PM,8:00 AM,,,6:00 PM,8:00 AM,,,6:00 PM,8:00 AM,,,6:00 PM,8:00 AM,,,6:00 PM,8:00 AM,,,6:00 PM,8:00 AM,,,6:00 PM,,13 42 98,,,,,https://www.4cyte.com.au,2023-04-24 12:01 pm
CID00628,Harris Park 4Cyte Pathology Walk-in Clinic,151.01059741778667,-33.82192913018522,,68 Harris Street,Harris Park,NSW,2150,,N,Y,Y,N,,,,N,8:30 AM,,,5:00 PM,8:30 AM,,,5:00 PM,8:30 AM,,,5:00 PM,8:30 AM,,,5:00 PM,8:30 AM,,,5:00 PM,9:00 AM,,,1:00 PM,9:00 AM,,,1:00 PM,,134298,,,,Closed on public holidays.,https://www.4cyte.com.au,2023-04-24 11:45 am
CID00637,"Gosford Histopath Pathology Walk-in Clinic, Gosford Hospital",151.34088611345348,-33.42086715644375,,75 Holden Street,Gosford,NSW,2250,,N,Y,Y,N,,,,N,8:00 AM,,,4:00 PM,8:00 AM,,,4:00 PM,8:00 AM,,,4:00 PM,8:00 AM,,,4:00 PM,8:00 AM,,,4:00 PM,8:00 AM,,,4:00 PM,8:00 AM,,,4:00 PM,,(02) 9878 8111,,,,,https://www.histopath.com.au/,2023-01-18 9:16 am
CID00638,Carlingford Histopath Pathology Drive-through and Walk-in Clinic,151.03801,-33.76402,,71 Murray Farm Road,Carlingford,NSW,2118,,Y,Y,Y,N,,,,N,8:00 AM,,,6:00 PM,8:00 AM,,,6:00 PM,8:00 AM,,,6:00 PM,8:00 AM,,,6:00 PM,8:00 AM,,,6:00 PM,,,,,,,,,,,,,,,https://www.histopath.com.au/,2023-04-18 9:45 am
CID00653,Westmead Clinical Labs Pathology Walk-In Clinic,150.9848087985711,-33.813468486340945,,72 Hawkesbury Road,Westmead,NSW,2145,Advance Medical Centre,N,Y,Y,N,,,,N,8:30 AM,,,12:30 PM,8:30 AM,,,12:30 PM,,,,,8:30 AM,,,12:30 PM,,,,,8:30 AM,,,12:30 PM,,,,,,,,,,,https://www.clinicallabs.com.au/,2023-02-01 10:00 am
CID00654,Emerton Clinical Labs Pathology Walk-In Clinic,150.8100972694275,-33.745165326072936,,"Shop 4, 127-129 Popondetta Road",Emerton,NSW,2770,Emerton Medical Centre,N,Y,Y,N,,,,N,8:30 AM,,,3:00 PM,8:30 AM,,,3:00 PM,8:30 AM,,,3:00 PM,8:30 AM,,,3:00 PM,8:30 AM,,,3:00 PM,9:00 AM,,,12:00 PM,,,,,,,,,,,https://www.clinicallabs.com.au/,2023-02-06 11:00 am
CID00655,Seven Hills Clinical Labs Walk-In Clinic,150.92326257525679,-33.77640016967493,,"Shop 4, 6 Orana Avenue",Seven Hills,NSW,2147,Orana Medical Practice,N,Y,Y,N,,,,N,8:00 AM,,,12:00 PM,8:00 AM,,,12:00 PM,8:00 AM,,,12:00 PM,8:00 AM,,,12:00 PM,8:00 AM,,,12:00 PM,8:00 AM,,,12:00 PM,,,,,,,,,,,https://www.clinicallabs.com.au/,2023-03-22 3:15 pm
CID00656,Cronulla Clinical Labs Walk-In Clinic,151.151496405905,-34.05379374387572,,"Suite 1, Ground Floor, 70 Croydon Street",Cronulla,NSW,2230,,N,N,Y,N,,,,N,7:30 AM,,,12:30 PM,7:30 AM,,,12:30 PM,7:30 AM,,,12:30 PM,7:30 AM,,,12:30 PM,7:30 AM,,,12:30 PM,8:00 AM,,,12:00 PM,,,,,,,,,,,https://www.clinicallabs.com.au/,2023-02-06 11:00 am
CID00657,Rockdale Clinical Labs Walk-In Clinic,151.13980139244006,-33.95751772718536,Rockdale Plaza,"Shop M2, 1 Rockdale Plaza Dr",Rockdale,NSW,2216,MyHealth Rockdale,N,Y,Y,N,,,,N,9:00 AM,,,3:00 PM,9:00 AM,,,3:00 PM,9:00 AM,,,3:00 PM,9:00 AM,,,3:00 PM,9:00 AM,,,3:00 PM,9:00 AM,,,1:00 PM,,,,,,,,,,,https://www.clinicallabs.com.au/,2023-01-30 10:00 am
CID00658,Miranda Clinical Labs Walk-In Clinic,151.102525922501,-34.03688068663951,,"Suite 108, Level 1, 26-28 Gibbs Street",Miranda,NSW,2228,,N,Y,Y,N,,,,N,8:00 AM,,,12:00 PM,8:00 AM,,,12:00 PM,8:00 AM,,,12:00 PM,8:00 AM,,,12:00 PM,8:00 AM,,,12:00 PM,,,,,,,,,,,,,,,https://www.clinicallabs.com.au/,2023-02-06 11:00 am
CID00662,Galston Clinical Labs Walk-In Clinic,151.04593364058897,-33.652564556236015,,"Shop 4, 350 Galston Road",Galston,NSW,2159,Galston Family Practice,N,Y,Y,N,,,,N,8:30 AM,,,11:30 AM,,,,,,,,,8:30 AM,,,11:30 AM,,,,,,,,,,,,,,,,,,,https://www.clinicallabs.com.au/,2023-02-06 11:00 am
CID00665,Bondi Junction Clinical Labs Walk-In Clinic,151.24661715746814,-33.89245065282765,,47-49 Spring Street,Bondi Junction,NSW,2022,,N,Y,Y,N,,,,N,9:00 AM,,,5:00 PM,9:00 AM,,,5:00 PM,9:00 AM,,,5:00 PM,9:00 AM,,,5:00 PM,9:00 AM,,,5:00 PM,9:00 AM,,,5:00 PM,9:00 AM,,,5:00 PM,,,,,,,https://www.clinicallabs.com.au/,2023-04-04 2:45 pm
